NOAA 17                 
1 27453U 02032A   26062.85279176  .00000308  00000+0  14782-3 0  9994
2 27453  98.8531  27.4210 0010721 300.3277  59.6841 14.26185150231974
NOAA 18                 
1 28654U 05018A   26062.73822842  .00000082  00000+0  66219-4 0  9998
2 28654  98.8166 143.9287 0015352  91.2311 269.0621 14.13709490 71419
NOAA 19                 
1 33591U 09005A   26062.78915433  .00000067  00000+0  59805-4 0  9994
2 33591  98.9618 133.5500 0013117 332.3096  27.7376 14.13455490879596
SUOMI NPP               
1 37849U 11061A   26062.82250987  .00000106  00000+0  71267-4 0  9990
2 37849  98.7864   4.4720 0000430 287.6961  72.4168 14.19541551743499
NOAA 20 (JPSS-1)        
1 43013U 17073A   26062.83715056  .00000099  00000+0  68042-4 0  9991
2 43013  98.7686   3.2827 0000931 145.4930 214.6307 14.19534278429527
NOAA 21 (JPSS-2)        
1 54234U 22150A   26062.80143850  .00000108  00000+0  72021-4 0  9997
2 54234  98.7549   3.1350 0002515 117.0283 243.1150 14.19550285171598
