[{"OBJECT_NAME":"NOAA 17","OBJECT_ID":"2002-032A","EPOCH":"2026-03-03T20:28:01.208064","MEAN_MOTION":14.2618515,"ECCENTRICITY":0.0010721,"INCLINATION":98.8531,"RA_OF_ASC_NODE":27.421,"ARG_OF_PERICENTER":300.3277,"MEAN_ANOMALY":59.6841,"EPHEMERIS_TYPE":0,"CLASSIFICATION_TYPE":"U","NORAD_CAT_ID":27453,"ELEMENT_SET_NO":999,"REV_AT_EPOCH":23197,"BSTAR":0.00014782,"MEAN_MOTION_DOT":3.08e-6,"MEAN_MOTION_DDOT":0},{"OBJECT_NAME":"NOAA 18","OBJECT_ID":"2005-018A","EPOCH":"2026-03-03T17:43:02.935488","MEAN_MOTION":14.1370949,"ECCENTRICITY":0.0015352,"INCLINATION":98.8166,"RA_OF_ASC_NODE":143.9287,"ARG_OF_PERICENTER":91.2311,"MEAN_ANOMALY":269.0621,"EPHEMERIS_TYPE":0,"CLASSIFICATION_TYPE":"U","NORAD_CAT_ID":28654,"ELEMENT_SET_NO":999,"REV_AT_EPOCH":7141,"BSTAR":6.6219e-5,"MEAN_MOTION_DOT":8.2e-7,"MEAN_MOTION_DDOT":0},{"OBJECT_NAME":"NOAA 19","OBJECT_ID":"2009-005A","EPOCH":"2026-03-03T18:56:22.934112","MEAN_MOTION":14.1345549,"ECCENTRICITY":0.0013117,"INCLINATION":98.9618,"RA_OF_ASC_NODE":133.55,"ARG_OF_PERICENTER":332.3096,"MEAN_ANOMALY":27.7376,"EPHEMERIS_TYPE":0,"CLASSIFICATION_TYPE":"U","NORAD_CAT_ID":33591,"ELEMENT_SET_NO":999,"REV_AT_EPOCH":87959,"BSTAR":5.9805e-5,"MEAN_MOTION_DOT":6.7e-7,"MEAN_MOTION_DDOT":0},{"OBJECT_NAME":"SUOMI NPP","OBJECT_ID":"2011-061A","EPOCH":"2026-03-03T19:44:24.852768","MEAN_MOTION":14.19541551,"ECCENTRICITY":4.3e-5,"INCLINATION":98.7864,"RA_OF_ASC_NODE":4.472,"ARG_OF_PERICENTER":287.6961,"MEAN_ANOMALY":72.4168,"EPHEMERIS_TYPE":0,"CLASSIFICATION_TYPE":"U","NORAD_CAT_ID":37849,"ELEMENT_SET_NO":999,"REV_AT_EPOCH":74349,"BSTAR":7.1267e-5,"MEAN_MOTION_DOT":1.06e-6,"MEAN_MOTION_DDOT":0},{"OBJECT_NAME":"NOAA 20 (JPSS-1)","OBJECT_ID":"2017-073A","EPOCH":"2026-03-03T20:05:29.808384","MEAN_MOTION":14.19534278,"ECCENTRICITY":9.31e-5,"INCLINATION":98.7686,"RA_OF_ASC_NODE":3.2827,"ARG_OF_PERICENTER":145.493,"MEAN_ANOMALY":214.6307,"EPHEMERIS_TYPE":0,"CLASSIFICATION_TYPE":"U","NORAD_CAT_ID":43013,"ELEMENT_SET_NO":999,"REV_AT_EPOCH":42952,"BSTAR":6.8042e-5,"MEAN_MOTION_DOT":9.9e-7,"MEAN_MOTION_DDOT":0},{"OBJECT_NAME":"NOAA 21 (JPSS-2)","OBJECT_ID":"2022-150A","EPOCH":"2026-03-03T19:14:04.286400","MEAN_MOTION":14.19550285,"ECCENTRICITY":0.0002515,"INCLINATION":98.7549,"RA_OF_ASC_NODE":3.135,"ARG_OF_PERICENTER":117.0283,"MEAN_ANOMALY":243.115,"EPHEMERIS_TYPE":0,"CLASSIFICATION_TYPE":"U","NORAD_CAT_ID":54234,"ELEMENT_SET_NO":999,"REV_AT_EPOCH":17159,"BSTAR":7.2021e-5,"MEAN_MOTION_DOT":1.08e-6,"MEAN_MOTION_DDOT":0}]
